STARLINK-37175          
1 68401U 26063X   26107.89735841  .00192546  00000+0  12605-2 0  9999
2 68401  97.2854 249.6122 0001198  90.0489 270.0913 15.75233117  3810
STARLINK-36360          
1 68402U 26063Y   26110.25002315 -.00029603  00000+0 -19834-3 0  9994
2 68402  97.2849 252.1328 0001319 106.0910  28.1544 15.75184333  5149
STARLINK-37218          
1 68403U 26063Z   26107.81140531  .00140193  00000+0  71901-3 0  9995
2 68403  97.2848 249.5771 0001413  66.6098 293.5319 15.80874597  3807
STARLINK-37188          
1 68404U 26063AA  26107.93876064  .00096878  00000+0  50013-3 0  9997
2 68404  97.2850 249.7093 0001580  85.3747 274.7701 15.80849904  3826
SHIYAN-33               
1 68405U 26064A   26110.19505209  .00003643  00000+0  15583-3 0  9992
2 68405  97.4637 186.0158 0015169 145.8233 214.3984 15.23366587  3660
LPNTSAT-001 (IOD-1)     
1 68408U 26065A   26107.64644824  .00001734  00000+0  87535-4 0  9995
2 68408  97.4099 349.4201 0016122 210.2902 149.7402 15.18333868  3070
LPNTSAT-002 (IOD-2)     
1 68409U 26065B   26107.64585017  .00004071  00000+0  20054-3 0  9993
2 68409  97.4087 349.4181 0013259 204.5317 155.5288 15.18449680  3054
XINZHENGCHENG-01        
1 68412U 26066A   26110.27635794  .00000367  00000+0  36125-4 0  9990
2 68412  84.9630 264.5861 0027648  95.0180 265.4200 14.88354019  3112
TRANSPORTER-16 OBJECT A 
1 68416U 26067A   26107.81943879  .00005196  00000+0  25381-3 0  9993
2 68416  97.4505  67.2087 0004046 107.6321 252.5355 15.18682962  2783
JACK-002                
1 68417U 26067B   26107.82014455  .00004920  00000+0  24097-3 0  9991
2 68417  97.4526  67.2120 0003892 109.6101 250.5554 15.18618492  2787
OPTISAT                 
1 68418U 26067C   26107.82099188  .00003240  00000+0  16026-3 0  9995
2 68418  97.4543  67.2154 0003854 121.0306 239.1307 15.18519250  2788
TRANSPORTER-16 OBJECT D 
1 68419U 26067D   26107.82084407  .00001960  00000+0  98232-4 0  9991
2 68419  97.4500  67.2061 0003430 101.1674 258.9946 15.18529535  2781
ERMIS-2                 
1 68420U 26067E   26107.82054536  .00007174  00000+0  34959-3 0  9991
2 68420  97.4448  67.1953 0003630  91.8754 268.2896 15.18633539  2787
TRANSPORTER-16 OBJECT F 
1 68421U 26067F   26107.82293218  .00003173  00000+0  15777-3 0  9996
2 68421  97.4475  67.1980 0002935  93.6919 266.4651 15.18349018  2783
